start=new Date('2022-02-09T00:00:00.000Z').valueOf();
sats=[{"PERIAPSIS":"546.152","OBJECT_ID":"2021-024AE","MEAN_MOTION_DDOT":"0.0000000000000","REV_AT_EPOCH":"5032","BSTAR":"0.00019801000000","PERIOD":"95.593","GP_ID":"195547113","COUNTRY_CODE":"US","MEAN_MOTION":"15.06388571","CENTER_NAME":"EARTH","ELEMENT_SET_NO":"999","OBJECT_TYPE":"PAYLOAD","ECCENTRICITY":"0.00015830","TLE_LINE2":"2 48005  53.0535 156.0052 0001583  69.3106 290.8053 15.06388571 50322","SEMIMAJOR_AXIS":"6925.384","MEAN_MOTION_DOT":"0.00002668","CLASSIFICATION_TYPE":"U","RCS_SIZE":"LARGE","APOAPSIS":"548.345","OBJECT_NAME":"STARLINK-2254","MEAN_ELEMENT_THEORY":"SGP4","DECAY_DATE":null,"TIME_SYSTEM":"UTC","RA_OF_ASC_NODE":"156.0052","REF_FRAME":"TEME","INCLINATION":"53.0535","MEAN_ANOMALY":"290.8053","ARG_OF_PERICENTER":"69.3106","FILE":"3295096","TLE_LINE1":"1 48005U 21024AE  22039.57552840  .00002668  00000-0  19801-3 0  9992","LAUNCH_DATE":"2021-03-24","EPHEMERIS_TYPE":"0","NORAD_CAT_ID":"48005","SITE":"AFETR","EPOCH":"2022-02-08T13:48:45.653760"},{"ELEMENT_SET_NO":"999","CENTER_NAME":"EARTH","ECCENTRICITY":"0.00013220","OBJECT_TYPE":"PAYLOAD","TLE_LINE2":"2 48008  53.0538  90.9517 0001322  67.6829 217.4128 15.06379718  3592","MEAN_MOTION_DOT":"0.00052616","CLASSIFICATION_TYPE":"U","SEMIMAJOR_AXIS":"6925.411","RCS_SIZE":"LARGE","APOAPSIS":"548.191","OBJECT_NAME":"STARLINK-2271","MEAN_ELEMENT_THEORY":"SGP4","DECAY_DATE":null,"TIME_SYSTEM":"UTC","REF_FRAME":"TEME","RA_OF_ASC_NODE":"90.9517","MEAN_ANOMALY":"217.4128","INCLINATION":"53.0538","FILE":"3295096","ARG_OF_PERICENTER":"67.6829","EPHEMERIS_TYPE":"0","NORAD_CAT_ID":"48008","LAUNCH_DATE":"2021-03-24","TLE_LINE1":"1 48008U 21024AH  22039.58334491  .00052616  00000-0  35269-2 0  9999","EPOCH":"2022-02-08T14:00:01.000224","SITE":"AFETR","PERIAPSIS":"546.360","OBJECT_ID":"2021-024AH","MEAN_MOTION_DDOT":"0.0000000000000","REV_AT_EPOCH":"359","BSTAR":"0.00352690000000","PERIOD":"95.593","GP_ID":"195547860","MEAN_MOTION":"15.06379718","COUNTRY_CODE":"US"},{"COUNTRY_CODE":"US","MEAN_MOTION":"15.06401530","GP_ID":"195578890","PERIOD":"95.592","MEAN_MOTION_DDOT":"0.0000000000000","REV_AT_EPOCH":"4975","BSTAR":"0.00055931000000","PERIAPSIS":"546.088","OBJECT_ID":"2021-024AJ","TLE_LINE1":"1 48009U 21024AJ  22039.78839407  .00008059  00000-0  55931-3 0  9990","LAUNCH_DATE":"2021-03-24","EPHEMERIS_TYPE":"0","NORAD_CAT_ID":"48009","EPOCH":"2022-02-08T18:55:17.247648","SITE":"AFETR","INCLINATION":"53.0554","MEAN_ANOMALY":"299.2567","ARG_OF_PERICENTER":"60.8584","FILE":"3295305","TIME_SYSTEM":"UTC","RA_OF_ASC_NODE":"165.0072","REF_FRAME":"TEME","OBJECT_NAME":"STARLINK-2153","MEAN_ELEMENT_THEORY":"SGP4","DECAY_DATE":null,"SEMIMAJOR_AXIS":"6925.344","MEAN_MOTION_DOT":"0.00008059","CLASSIFICATION_TYPE":"U","APOAPSIS":"548.329","RCS_SIZE":"LARGE","TLE_LINE2":"2 48009  53.0554 165.0072 0001618  60.8584 299.2567 15.06401530 49753","OBJECT_TYPE":"PAYLOAD","ECCENTRICITY":"0.00016180","CENTER_NAME":"EARTH","ELEMENT_SET_NO":"999"},{"APOAPSIS":"548.175","RCS_SIZE":"LARGE","MEAN_MOTION_DOT":"0.00001262","CLASSIFICATION_TYPE":"U","SEMIMAJOR_AXIS":"6925.411","TLE_LINE2":"2 48010  53.0534 186.7670 0001297  79.4013 280.7122 15.06379494 49882","OBJECT_TYPE":"PAYLOAD","ECCENTRICITY":"0.00012970","ELEMENT_SET_NO":"999","CENTER_NAME":"EARTH","EPOCH":"2022-02-08T09:40:38.109504","SITE":"AFETR","EPHEMERIS_TYPE":"0","NORAD_CAT_ID":"48010","LAUNCH_DATE":"2021-03-24","TLE_LINE1":"1 48010U 21024AK  22039.40321886  .00001262  00000-0  10363-3 0  9997","FILE":"3295096","ARG_OF_PERICENTER":"79.4013","MEAN_ANOMALY":"280.7122","INCLINATION":"53.0534","REF_FRAME":"TEME","RA_OF_ASC_NODE":"186.7670","TIME_SYSTEM":"UTC","DECAY_DATE":null,"MEAN_ELEMENT_THEORY":"SGP4","OBJECT_NAME":"STARLINK-2226","OBJECT_ID":"2021-024AK","PERIAPSIS":"546.378","MEAN_MOTION":"15.06379494","COUNTRY_CODE":"US","GP_ID":"195548851","PERIOD":"95.593","BSTAR":"0.00010363000000","REV_AT_EPOCH":"4988","MEAN_MOTION_DDOT":"0.0000000000000"},{"MEAN_MOTION":"15.06389848","COUNTRY_CODE":"US","GP_ID":"195578887","PERIOD":"95.593","MEAN_MOTION_DDOT":"0.0000000000000","REV_AT_EPOCH":"4974","BSTAR":"0.00010451000000","PERIAPSIS":"546.268","OBJECT_ID":"2021-024AL","NORAD_CAT_ID":"48011","EPHEMERIS_TYPE":"0","LAUNCH_DATE":"2021-03-24","TLE_LINE1":"1 48011U 21024AL  22039.69160641  .00001275  00000-0  10451-3 0  9991","SITE":"AFETR","EPOCH":"2022-02-08T16:35:54.793824","MEAN_ANOMALY":"282.9175","INCLINATION":"53.0572","FILE":"3295305","ARG_OF_PERICENTER":"77.1972","TIME_SYSTEM":"UTC","REF_FRAME":"TEME","RA_OF_ASC_NODE":"165.4805","OBJECT_NAME":"STARLINK-2272","MEAN_ELEMENT_THEORY":"SGP4","DECAY_DATE":null,"MEAN_MOTION_DOT":"0.00001275","CLASSIFICATION_TYPE":"U","SEMIMAJOR_AXIS":"6925.380","APOAPSIS":"548.222","RCS_SIZE":"LARGE","TLE_LINE2":"2 48011  53.0572 165.4805 0001411  77.1972 282.9175 15.06389848 49747","OBJECT_TYPE":"PAYLOAD","ECCENTRICITY":"0.00014110","ELEMENT_SET_NO":"999","CENTER_NAME":"EARTH"},{"CENTER_NAME":"EARTH","ELEMENT_SET_NO":"999","OBJECT_TYPE":"PAYLOAD","ECCENTRICITY":"0.00019670","TLE_LINE2":"2 48012  53.0587 139.5882 0001967  41.3275 318.7868 15.20092657 50616","SEMIMAJOR_AXIS":"6883.698","MEAN_MOTION_DOT":"0.00003188","CLASSIFICATION_TYPE":"U","RCS_SIZE":"LARGE","APOAPSIS":"506.917","OBJECT_NAME":"STARLINK-2216","MEAN_ELEMENT_THEORY":"SGP4","DECAY_DATE":null,"TIME_SYSTEM":"UTC","RA_OF_ASC_NODE":"139.5882","REF_FRAME":"TEME","INCLINATION":"53.0587","MEAN_ANOMALY":"318.7868","ARG_OF_PERICENTER":"41.3275","FILE":"3295096","TLE_LINE1":"1 48012U 21024AM  22039.55215371  .00003188  00000-0  16048-3 0  9991","LAUNCH_DATE":"2021-03-24","EPHEMERIS_TYPE":"0","NORAD_CAT_ID":"48012","SITE":"AFETR","EPOCH":"2022-02-08T13:15:06.080544","PERIAPSIS":"504.209","OBJECT_ID":"2021-024AM","REV_AT_EPOCH":"5061","MEAN_MOTION_DDOT":"0.0000000000000","BSTAR":"0.00016048000000","PERIOD":"94.731","GP_ID":"195547360","COUNTRY_CODE":"US","MEAN_MOTION":"15.20092657"},{"ARG_OF_PERICENTER":"80.2319","FILE":"3295096","INCLINATION":"53.0547","MEAN_ANOMALY":"279.8858","EPOCH":"2022-02-08T13:57:22.065696","SITE":"AFETR","LAUNCH_DATE":"2021-03-24","TLE_LINE1":"1 48013U 21024AN  22039.58150539 -.00000160  00000-0  81711-5 0  9998","EPHEMERIS_TYPE":"0","NORAD_CAT_ID":"48013","DECAY_DATE":null,"MEAN_ELEMENT_THEORY":"SGP4","OBJECT_NAME":"STARLINK-2243","RA_OF_ASC_NODE":"150.9797","REF_FRAME":"TEME","TIME_SYSTEM":"UTC","TLE_LINE2":"2 48013  53.0547 150.9797 0001669  80.2319 279.8858 15.06399993 50405","RCS_SIZE":"LARGE","APOAPSIS":"548.369","SEMIMAJOR_AXIS":"6925.349","CLASSIFICATION_TYPE":"U","MEAN_MOTION_DOT":"-0.00000160","CENTER_NAME":"EARTH","ELEMENT_SET_NO":"999","ECCENTRICITY":"0.00016690","OBJECT_TYPE":"PAYLOAD","GP_ID":"195548113","COUNTRY_CODE":"US","MEAN_MOTION":"15.06399993","BSTAR":"0.00000817110000","MEAN_MOTION_DDOT":"0.0000000000000","REV_AT_EPOCH":"5040","PERIOD":"95.592","OBJECT_ID":"2021-024AN","PERIAPSIS":"546.058"},{"CENTER_NAME":"EARTH","ELEMENT_SET_NO":"999","ECCENTRICITY":"0.00017520","OBJECT_TYPE":"PAYLOAD","TLE_LINE2":"2 48014  53.0533 114.9981 0001752  47.3997 105.4182 15.05568165  3607","SEMIMAJOR_AXIS":"6927.899","MEAN_MOTION_DOT":"0.00033009","CLASSIFICATION_TYPE":"U","APOAPSIS":"550.978","RCS_SIZE":"LARGE","OBJECT_NAME":"STARLINK-2283","MEAN_ELEMENT_THEORY":"SGP4","DECAY_DATE":null,"TIME_SYSTEM":"UTC","RA_OF_ASC_NODE":"114.9981","REF_FRAME":"TEME","INCLINATION":"53.0533","MEAN_ANOMALY":"105.4182","ARG_OF_PERICENTER":"47.3997","FILE":"3295096","TLE_LINE1":"1 48014U 21024AP  22039.58334491  .00033009  00000-0  22748-2 0  9999","LAUNCH_DATE":"2021-03-24","EPHEMERIS_TYPE":"0","NORAD_CAT_ID":"48014","EPOCH":"2022-02-08T14:00:01.000224","SITE":"AFETR","PERIAPSIS":"548.550","OBJECT_ID":"2021-024AP","REV_AT_EPOCH":"360","MEAN_MOTION_DDOT":"0.0000000000000","BSTAR":"0.00227480000000","PERIOD":"95.645","GP_ID":"195548351","COUNTRY_CODE":"US","MEAN_MOTION":"15.05568165"},{"PERIAPSIS":"546.194","OBJECT_ID":"2021-024AR","MEAN_MOTION_DDOT":"0.0000000000000","REV_AT_EPOCH":"360","BSTAR":"0.00317960000000","PERIOD":"95.594","GP_ID":"195547114","COUNTRY_CODE":"US","MEAN_MOTION":"15.06373232","CENTER_NAME":"EARTH","ELEMENT_SET_NO":"999","OBJECT_TYPE":"PAYLOAD","ECCENTRICITY":"0.00015910","TLE_LINE2":"2 48016  53.0538 100.9562 0001591  50.7216 179.3632 15.06373232  3607","SEMIMAJOR_AXIS":"6925.431","MEAN_MOTION_DOT":"0.00047364","CLASSIFICATION_TYPE":"U","APOAPSIS":"548.397","RCS_SIZE":"LARGE","OBJECT_NAME":"STARLINK-2284","MEAN_ELEMENT_THEORY":"SGP4","DECAY_DATE":null,"TIME_SYSTEM":"UTC","RA_OF_ASC_NODE":"100.9562","REF_FRAME":"TEME","INCLINATION":"53.0538","MEAN_ANOMALY":"179.3632","ARG_OF_PERICENTER":"50.7216","FILE":"3295096","TLE_LINE1":"1 48016U 21024AR  22039.58334491  .00047364  00000-0  31796-2 0  9993","LAUNCH_DATE":"2021-03-24","NORAD_CAT_ID":"48016","EPHEMERIS_TYPE":"0","SITE":"AFETR","EPOCH":"2022-02-08T14:00:01.000224"},{"TLE_LINE2":"2 48017  53.0513 157.6754 0003077 301.2143  58.8560 15.43137001 49858","APOAPSIS":"438.957","RCS_SIZE":"LARGE","CLASSIFICATION_TYPE":"U","MEAN_MOTION_DOT":"0.00014532","SEMIMAJOR_AXIS":"6814.995","ELEMENT_SET_NO":"999","CENTER_NAME":"EARTH","OBJECT_TYPE":"PAYLOAD","ECCENTRICITY":"0.00030770","FILE":"3295306","ARG_OF_PERICENTER":"301.2143","MEAN_ANOMALY":"58.8560","INCLINATION":"53.0513","EPOCH":"2022-02-08T18:09:51.881472","SITE":"AFETR","NORAD_CAT_ID":"48017","EPHEMERIS_TYPE":"0","LAUNCH_DATE":"2021-03-24","TLE_LINE1":"1 48017U 21024AS  22039.75685048  .00014532  00000-0  33176-3 0  9996","DECAY_DATE":null,"MEAN_ELEMENT_THEORY":"SGP4","OBJECT_NAME":"STARLINK-2239","REF_FRAME":"TEME","RA_OF_ASC_NODE":"157.6754","TIME_SYSTEM":"UTC","OBJECT_ID":"2021-024AS","PERIAPSIS":"434.763","GP_ID":"195578893","MEAN_MOTION":"15.43137001","COUNTRY_CODE":"US","BSTAR":"0.00033176000000","REV_AT_EPOCH":"4985","MEAN_MOTION_DDOT":"0.0000000000000","PERIOD":"93.316"}];
